{
  "norad_id": 59657,
  "name": "STARLINK-31904",
  "history": [
    {
      "epoch": "2026-03-28T20:33:00.195264Z",
      "apogee_km": 483.85011451684386,
      "perigee_km": 482.22127211944917,
      "latitude_deg": 2.6213666454254608e-05,
      "longitude_deg": 159.10241770584105,
      "height_km": 482.8238837262995,
      "semi_major_axis_km": 6861.172693318146,
      "eccentricity": 0.0001187,
      "inclination_deg": 43.0016,
      "raan_deg": 293.6239,
      "arg_perigee_deg": 269.1913,
      "mean_anomaly_deg": 90.8803,
      "mean_motion_rev_day": 15.27584476
    }
  ]
}